{"type":"FeatureCollection","features":[{"type":"Feature","properties":{"comuna":1,"hechos":18647,"nivel":"alto"},"geometry":{"type":"MultiPolygon","coordinates":[[[[-58.344862487949804,-34.61773245468687],[-58.35016623891,-34.617507344526686],[-58.34997367686602,-34.618721740780664],[-58.35269850298576,-34.619775295350834],[-58.3551455569975,-34.61955482270506],[-58.3560162075528,-34.617610896798965],[-58.363201122688885,-34.625139574833234],[-58.36797657673252,-34.625199763135186],[-58.36795049636793,-34.62714666538916],[-58.37066323406008,-34.62949785076114],[-58.37096872656504,-34.62665144696798],[-58.37456562467141,-34.62680369522484],[-58.379049190418385,-34.629337746977214],[-58.378626122498254,-34.63050324041974],[-58.38014808978738,-34.63303593551952],[-58.38125494654735,-34.63307428411365],[-58.38133730586496,-34.63084939427818],[-58.39035697026888,-34.634128602067136],[-58.392935333707776,-34.59964214930214],[-58.386868203764436,-34.59929786043728],[-58.38795472885699,-34.59165341346785],[-58.38369087887974,-34.587505583241736],[-58.38696844658319,-34.58355674501224],[-58.39164933888166,-34.58083641962399],[-58.389869341696375,-34.578207133668116],[-58.38357629120498,-34.5782407460442],[-58.379841464837774,-34.58016729947032],[-58.375126880746755,-34.5805254281304],[-58.373977174409106,-34.57910768707074],[-58.37671626106816,-34.57755069258156],[-58.37428889158243,-34.57870957317203],[-58.36795553859234,-34.578211416651854],[-58.365251454121285,-34.58015608946327],[-58.37056365412353,-34.58083540230601],[-58.368975289100625,-34.58173392430387],[-58.36162502808646,-34.581152385208505],[-58.361417757287526,-34.58296893642792],[-58.36614851142904,-34.58356375333382],[-58.36494652313514,-34.584504548357486],[-58.35992042240929,-34.5841233530128],[-58.359729103818744,-34.58592406871261],[-58.36364863874597,-34.58624596742896],[-58.363527535469785,-34.58746271693558],[-58.35960762309352,-34.58718936741614],[-58.359461950233104,-34.58808498390018],[-58.36799692103641,-34.59001338072157],[-58.364371922353534,-34.59426982427037],[-58.367089402500184,-34.59140365964746],[-58.366388721545,-34.59299041504882],[-58.3678749988485,-34.59195878341],[-58.367153854179,-34.593308098547325],[-58.369083656398125,-34.59416162876316],[-58.36791353151089,-34.59747857900049],[-58.366093909072035,-34.59820853822204],[-58.36615974297176,-34.597388831731905],[-58.36383556620314,-34.597202842063325],[-58.364105689289474,-34.59531635472929],[-58.36148309785111,-34.595132896250064],[-58.361245076454395,-34.59528039892109],[-58.36384791399487,-34.59548607637648],[-58.36342174838141,-34.59666429173523],[-58.36033448322037,-34.59547098800621],[-58.36110346649097,-34.59510585148152],[-58.35414917509483,-34.59466946306939],[-58.35096485791214,-34.59515023880387],[-58.3567689269046,-34.594935285715174],[-58.346783015009365,-34.60236350520466],[-58.34587208667433,-34.60670678603408],[-58.34128636791876,-34.61008683200916],[-58.33986582955643,-34.61487450645146],[-58.34115278623445,-34.61702138576532],[-58.344862487949804,-34.61773245468687]]],[[[-58.355437805409146,-34.59190175313032],[-58.35818646256386,-34.57934265979816],[-58.36764893308296,-34.5738994597077],[-58.36973124629536,-34.5739978012019],[-58.36758683247869,-34.573864488886144],[-58.358125063733176,-34.57930942635149],[-58.355437805409146,-34.59190175313032]]]]}},{"type":"Feature","properties":{"comuna":2,"hechos":6201,"nivel":"medio"},"geometry":{"type":"Polygon","coordinates":[[[-58.38035794268091,-34.570103317355645],[-58.379960350933935,-34.568203880754226],[-58.3681686748618,-34.56723723750758],[-58.379785272678646,-34.568310417331524],[-58.38023422068042,-34.56984564966574],[-58.38003022933984,-34.57037267398053],[-58.37877614841892,-34.570355047329514],[-58.37616391128904,-34.57165990605206],[-58.36176174534931,-34.570646552283726],[-58.359845713592144,-34.57174786314672],[-58.3621041645752,-34.57074504955341],[-58.37614935554656,-34.57180581775957],[-58.371222567730086,-34.574745118517924],[-58.37117491294684,-34.574903083579144],[-58.378684759041185,-34.570480861923144],[-58.38036111212539,-34.57047919907209],[-58.37828309008249,-34.57274684626169],[-58.383585683090615,-34.57341727775679],[-58.3818168163524,-34.57441578676828],[-58.375443919500846,-34.57393073573305],[-58.37070541065229,-34.57704285616661],[-58.37671626106816,-34.57755069258156],[-58.373977174409106,-34.57910768707074],[-58.375126880746755,-34.5805254281304],[-58.379841464837774,-34.58016729947032],[-58.38357629120498,-34.5782407460442],[-58.389869341696375,-34.578207133668116],[-58.39164933888166,-34.58083641962399],[-58.38696844658319,-34.58355674501224],[-58.38369087887974,-34.587505583241736],[-58.38795472885699,-34.59165341346785],[-58.386868203764436,-34.59929786043728],[-58.39872726394246,-34.59976535365024],[-58.40451071644731,-34.598041065991],[-58.41600403600113,-34.597859933549024],[-58.414397287745764,-34.59405930920153],[-58.40617642820399,-34.58346470960735],[-58.40194733042239,-34.58343181108031],[-58.40054799256822,-34.584477245354066],[-58.396564195981334,-34.578512233282034],[-58.4026506816133,-34.574146009020055],[-58.39972018078613,-34.57081264566094],[-58.40013108172107,-34.5693546362421],[-58.38794483725291,-34.57487735658503],[-58.386648203813365,-34.573230796984284],[-58.39126553617799,-34.57061099020856],[-58.3904950886105,-34.56942898897008],[-58.38146827466691,-34.56842771226113],[-58.38035794268091,-34.570103317355645]]]}},{"type":"Feature","properties":{"comuna":3,"hechos":10193,"nivel":"alto"},"geometry":{"type":"Polygon","coordinates":[[[-58.41192253140974,-34.59800821515629],[-58.392935333707776,-34.59964214930214],[-58.39117418686142,-34.62725739800156],[-58.41178281112581,-34.63036027048347],[-58.4128735978394,-34.61412102787183],[-58.41466351449463,-34.60819498354091],[-58.41192253140974,-34.59800821515629]]]}},{"type":"Feature","properties":{"comuna":4,"hechos":11597,"nivel":"alto"},"geometry":{"type":"Polygon","coordinates":[[[-58.355206411665044,-34.61943507715094],[-58.34461325229947,-34.61899051514879],[-58.34715670335587,-34.619993611254834],[-58.34593849276325,-34.622959824469206],[-58.34548549103092,-34.62152672547246],[-58.34407006836646,-34.62176003457747],[-58.34378856992695,-34.61883046679264],[-58.33859342720191,-34.61864336782163],[-58.33721667291444,-34.62252946490124],[-58.34303756808641,-34.622714440810626],[-58.337027693970654,-34.62489012336849],[-58.33515871099866,-34.627099027774285],[-58.33928395026463,-34.6288971019111],[-58.34245139746348,-34.62617352063797],[-58.344277550703744,-34.62637863731788],[-58.341405728899375,-34.628897793970914],[-58.34251414819407,-34.62945980994724],[-58.34705532849174,-34.62728622339436],[-58.34878983592163,-34.62908795549466],[-58.347931785530314,-34.63115757195418],[-58.346103125871046,-34.63166360858981],[-58.34907377940418,-34.63256081916418],[-58.351252329532755,-34.631257594236224],[-58.352387635098474,-34.629014982278306],[-58.36177270069493,-34.623643256692006],[-58.35469455582076,-34.62923314779469],[-58.35276622900297,-34.63356686204232],[-58.35325206376397,-34.63511462659427],[-58.35803214647837,-34.63920578608744],[-58.36144408440404,-34.63987110613079],[-58.358130708101854,-34.64187269937199],[-58.35760360074182,-34.64498371366717],[-58.3696618484966,-34.65133795769121],[-58.36979205642941,-34.6535823682468],[-58.37412390902166,-34.656768650021675],[-58.385178826856205,-34.65785043527689],[-58.38801948498511,-34.66033243429376],[-58.39318379781519,-34.66229740953415],[-58.39728787327114,-34.66196437502627],[-58.40253489805445,-34.65942620729705],[-58.407232234297126,-34.66000485318271],[-58.41240951035112,-34.658384512897726],[-58.424043891438195,-34.6620516470974],[-58.42674830161658,-34.65867794737795],[-58.43443587935198,-34.653117109717876],[-58.430432458920855,-34.649878374808424],[-58.43492550133184,-34.64624102483316],[-58.432110074021494,-34.645167863527476],[-58.43234695414734,-34.64174550061151],[-58.41126390426368,-34.638103577189355],[-58.41049206922789,-34.63524181008535],[-58.411782811125846,-34.63036027048347],[-58.39117418686142,-34.62725739800156],[-58.39035697026888,-34.634128602067136],[-58.38133730586496,-34.63084939427818],[-58.381254946547365,-34.63307428411365],[-58.38014808978738,-34.63303593551952],[-58.378626122498254,-34.63050324041974],[-58.379049190418385,-34.629337746977214],[-58.375577944126384,-34.62730591248493],[-58.37096872656504,-34.62665144696798],[-58.370663234060096,-34.62949785076114],[-58.36795049636794,-34.62714666538916],[-58.36797657673252,-34.6251997631352],[-58.3632011226889,-34.62513957483324],[-58.3560162075528,-34.617610896798965],[-58.355206411665044,-34.61943507715094]]]}},{"type":"Feature","properties":{"comuna":5,"hechos":6794,"nivel":"medio"},"geometry":{"type":"Polygon","coordinates":[[[-58.4128735978394,-34.61412102787183],[-58.411524050933046,-34.63286110190779],[-58.41049206922788,-34.63524181008535],[-58.41126390426364,-34.63810357718933],[-58.42349481677904,-34.64020460971672],[-58.4292553500569,-34.61511051469348],[-58.43003137426663,-34.61545404367605],[-58.43067198877805,-34.60594640975917],[-58.43333687771965,-34.60267859363733],[-58.42678829291573,-34.5979494812089],[-58.41192253140974,-34.59800821515629],[-58.41466351449463,-34.60819498354091],[-58.4128735978394,-34.61412102787183]]]}},{"type":"Feature","properties":{"comuna":6,"hechos":5850,"nivel":"medio"},"geometry":{"type":"Polygon","coordinates":[[[-58.430608699695775,-34.607052112479266],[-58.43003137426665,-34.61545404367607],[-58.4292553500569,-34.61511051469348],[-58.42675870469671,-34.62700303506082],[-58.45157819570983,-34.630643688528856],[-58.46270615195231,-34.60737818546292],[-58.458475643600124,-34.6044970632697],[-58.446249635039464,-34.607620731773416],[-58.43333687771965,-34.60267859363734],[-58.430608699695775,-34.607052112479266]]]}},{"type":"Feature","properties":{"comuna":7,"hechos":10652,"nivel":"alto"},"geometry":{"type":"Polygon","coordinates":[[[-58.459449971836904,-34.61389068145688],[-58.45157819570983,-34.630643688528856],[-58.42675870469671,-34.62700303506082],[-58.423494816779055,-34.64020460971673],[-58.43234695414734,-34.64174550061151],[-58.432110074021494,-34.645167863527476],[-58.43492550133184,-34.64624102483316],[-58.430432458920855,-34.649878374808424],[-58.438007702623175,-34.65580743858055],[-58.44332595519617,-34.65119399460118],[-58.45463778581161,-34.65082722194169],[-58.455063296518226,-34.652303458850824],[-58.46040313335783,-34.65681049338795],[-58.46703464979254,-34.65147244740455],[-58.46300023686062,-34.64617448926002],[-58.469243330807224,-34.64140132363981],[-58.47780801107838,-34.62238921186758],[-58.459449971836904,-34.61389068145688]]]}},{"type":"Feature","properties":{"comuna":8,"hechos":7905,"nivel":"alto"},"geometry":{"type":"Polygon","coordinates":[[[-58.45463778581161,-34.65082722194169],[-58.44332595519617,-34.65119399460118],[-58.438007702623175,-34.65580743858055],[-58.43443587935198,-34.653117109717876],[-58.42674830161658,-34.65867794737795],[-58.424043891438195,-34.6620516470974],[-58.4615856913617,-34.705355483937794],[-58.50252527504022,-34.674512432484015],[-58.49703952515368,-34.67118424077124],[-58.48895242145443,-34.66335244324564],[-58.47881829373255,-34.657848560507574],[-58.47251602641476,-34.66277676243772],[-58.47057138882731,-34.65843091443367],[-58.46955682463585,-34.65910942700471],[-58.46765625455309,-34.65751952387692],[-58.46443135241803,-34.66005337230465],[-58.455063296518226,-34.652303458850824],[-58.45463778581161,-34.65082722194169]]]}},{"type":"Feature","properties":{"comuna":9,"hechos":6796,"nivel":"alto"},"geometry":{"type":"Polygon","coordinates":[[[-58.53035752579122,-34.63480022662674],[-58.51486319473526,-34.63320792677432],[-58.50681882923088,-34.635817173289944],[-58.50567176664867,-34.63672260169123],[-58.51050891943808,-34.63737563432314],[-58.50982153516651,-34.640013005499306],[-58.50229906905262,-34.64582266350144],[-58.49713742592192,-34.64341397409885],[-58.49530206457031,-34.644852439732254],[-58.478546192563456,-34.63699885547769],[-58.476073061293455,-34.63893922752052],[-58.47130386272256,-34.636659753938936],[-58.469243330807224,-34.64140132363981],[-58.46300023686062,-34.64617448926002],[-58.46703464979254,-34.65147244740455],[-58.46040313335783,-34.65681049338795],[-58.46443135241803,-34.66005337230465],[-58.46765625455309,-34.65751952387692],[-58.46955682463585,-34.65910942700471],[-58.47057138882731,-34.65843091443367],[-58.47251602641476,-34.66277676243772],[-58.47881829373255,-34.657848560507574],[-58.48895242145443,-34.66335244324564],[-58.49703952515368,-34.67118424077124],[-58.50252527504022,-34.674512432484015],[-58.52920705002191,-34.65430347405725],[-58.53035752579122,-34.63480022662674]]]}},{"type":"Feature","properties":{"comuna":10,"hechos":6056,"nivel":"medio"},"geometry":{"type":"Polygon","coordinates":[[[-58.49557308272514,-34.61439626909074],[-58.482743193734414,-34.62463474854925],[-58.47780801107838,-34.62238921186758],[-58.47130386272256,-34.636659753938936],[-58.476073061293455,-34.63893922752052],[-58.478546192563456,-34.63699885547769],[-58.49530206457031,-34.644852439732254],[-58.49713742592192,-34.64341397409885],[-58.50229906905262,-34.64582266350144],[-58.50982153516651,-34.640013005499306],[-58.51050891943808,-34.63737563432314],[-58.50567176664867,-34.63672260169123],[-58.50681882923088,-34.635817173289944],[-58.51486319473526,-34.63320792677432],[-58.52023989015835,-34.63280211033947],[-58.52068660950893,-34.63382592736448],[-58.53035752579122,-34.63480022662674],[-58.53151730936994,-34.61549898106118],[-58.5294676849028,-34.61090106159131],[-58.51694927550724,-34.62022036334769],[-58.513046049005155,-34.616736904702016],[-58.500192416685685,-34.60913108464406],[-58.49557308272514,-34.61439626909074]]]}},{"type":"Feature","properties":{"comuna":11,"hechos":6505,"nivel":"medio"},"geometry":{"type":"Polygon","coordinates":[[[-58.498384938980664,-34.59637325618735],[-58.483456873969345,-34.59776357440074],[-58.47639330714976,-34.60020498085571],[-58.47749970818132,-34.600830501972816],[-58.47401769558466,-34.605316418353674],[-58.46891355826054,-34.60186572269597],[-58.458475643600124,-34.6044970632697],[-58.46270615195231,-34.60737818546292],[-58.459449971836904,-34.61389068145688],[-58.482743193734414,-34.62463474854925],[-58.49557308272514,-34.61439626909074],[-58.500192416685685,-34.60913108464406],[-58.513046049005155,-34.616736904702016],[-58.51694927550724,-34.62022036334769],[-58.5294676849028,-34.61090106159131],[-58.515535768574196,-34.58127414707184],[-58.50354366270086,-34.59445578824522],[-58.498384938980664,-34.59637325618735]]]}},{"type":"Feature","properties":{"comuna":12,"hechos":6211,"nivel":"medio"},"geometry":{"type":"Polygon","coordinates":[[[-58.50331123523567,-34.59386184024049],[-58.515535768574196,-34.58127414707184],[-58.500551668790834,-34.549495920968496],[-58.47595455466846,-34.53863739298882],[-58.46819097058801,-34.54894654457668],[-58.47443734115173,-34.55242741425036],[-58.466491862186054,-34.56219648199534],[-58.47336982768101,-34.56666768335338],[-58.46808280219983,-34.57291482378605],[-58.50331123523567,-34.59386184024049]]]}},{"type":"Feature","properties":{"comuna":13,"hechos":7993,"nivel":"alto"},"geometry":{"type":"Polygon","coordinates":[[[-58.456719458022626,-34.52674828843891],[-58.45171998987577,-34.53063138767528],[-58.45496648619892,-34.53527636720969],[-58.45882203224351,-34.5371327693483],[-58.4585597087675,-34.53732575059548],[-58.45386545717745,-34.535044987740655],[-58.45136365920483,-34.53171744765763],[-58.44996447156508,-34.535086292029625],[-58.45407181828169,-34.536539766242264],[-58.45483617470599,-34.537446594462054],[-58.45408617314288,-34.53879108866282],[-58.45217041798593,-34.53956419510006],[-58.44906714077152,-34.53555990218353],[-58.448567984279904,-34.53740071123808],[-58.44638441809379,-34.53600964688377],[-58.443863687174854,-34.53614484618917],[-58.441584261129016,-34.537626475622886],[-58.440784519721525,-34.540304720119714],[-58.44025715920719,-34.539209149983634],[-58.43756043932938,-34.5398024158173],[-58.43420302443965,-34.54186596482963],[-58.434624119666594,-34.54258212160814],[-58.429495996518405,-34.54665800086476],[-58.42963204866005,-34.54863059155689],[-58.42706028990311,-34.548040483749205],[-58.424743215242046,-34.54935092068855],[-58.42669533178922,-34.55205414353826],[-58.43098714459271,-34.55112501627761],[-58.44106131376858,-34.55790250180212],[-58.44033066344391,-34.560562003501744],[-58.434960847039065,-34.56179829631029],[-58.43540543361918,-34.562543094594],[-58.44116517463695,-34.56214001582999],[-58.44904676119445,-34.567859827048814],[-58.44074720899485,-34.57211211395189],[-58.44397422449456,-34.57537012594294],[-58.43994155147019,-34.57855265139006],[-58.44445103343923,-34.583176475673376],[-58.4602266652503,-34.5783011108979],[-58.463188835027395,-34.575111026455005],[-58.46808280219982,-34.57291482378605],[-58.473369827681005,-34.56666768335336],[-58.466491862186054,-34.56219648199534],[-58.47443734115173,-34.55242741425036],[-58.46819097058801,-34.54894654457668],[-58.47595455466846,-34.53863739298881],[-58.46379760243491,-34.53326774829826],[-58.45862476200739,-34.526709704738195],[-58.456719458022626,-34.52674828843891]]]}},{"type":"Feature","properties":{"comuna":14,"hechos":11581,"nivel":"alto"},"geometry":{"type":"Polygon","coordinates":[[[-58.40952422975303,-34.55721915385742],[-58.40391075999524,-34.563484736075736],[-58.398789758489,-34.56075319053227],[-58.403936053308804,-34.56356643305699],[-58.39921117582483,-34.56366546818596],[-58.39703979420499,-34.56500660495255],[-58.400190826728426,-34.56901765878399],[-58.39698334239346,-34.56667476841259],[-58.39284439159741,-34.57223851937547],[-58.39521040516281,-34.57219633516647],[-58.40013108172107,-34.5693546362421],[-58.39972018078613,-34.57081264566094],[-58.4026506816133,-34.574146009020055],[-58.396564195981334,-34.578512233282034],[-58.40054799256822,-34.584477245354066],[-58.40194733042239,-34.58343181108031],[-58.40617642820399,-34.58346470960735],[-58.414397287745764,-34.59405930920153],[-58.41600403600113,-34.597859933549024],[-58.423370464395774,-34.597753095799106],[-58.42695332551264,-34.5962157706669],[-58.44478808996422,-34.58451915727811],[-58.43994155147019,-34.57855265139006],[-58.44397422449456,-34.57537012594294],[-58.44074720899485,-34.57211211395189],[-58.44904676119445,-34.567859827048814],[-58.44116517463695,-34.56214001582999],[-58.43486149017645,-34.56209525140676],[-58.440492011577994,-34.560426044269704],[-58.44138828018453,-34.55882208848241],[-58.44044561932123,-34.557309275903],[-58.43098714459271,-34.55112501627761],[-58.425668022697465,-34.55197218736329],[-58.42473594055341,-34.54902164123396],[-58.425704542147976,-34.55216363570151],[-58.414055575661855,-34.55478427457651],[-58.40952422975303,-34.55721915385742]]]}},{"type":"Feature","properties":{"comuna":15,"hechos":8215,"nivel":"alto"},"geometry":{"type":"Polygon","coordinates":[[[-58.444588211785494,-34.58467138375304],[-58.423370464395774,-34.597753095799106],[-58.42777627037006,-34.598334144887495],[-58.432243441632785,-34.60213894439448],[-58.44624963503945,-34.607620731773444],[-58.46891355826054,-34.60186572269597],[-58.47401769558464,-34.605316418353674],[-58.47749970818131,-34.600830501972816],[-58.47639330714973,-34.60020498085571],[-58.483456873969345,-34.59776357440074],[-58.49717523922212,-34.596822971770756],[-58.50354366270086,-34.59445578824522],[-58.46736584353381,-34.57250216497175],[-58.4602266652503,-34.5783011108979],[-58.444402238746825,-34.583197455104525],[-58.444588211785494,-34.58467138375304]]]}}]}